[{"OBJECT_NAME":"STARLINK-4647","OBJECT_ID":"2022-104W","EPOCH":"2026-03-09T21:32:09.547008","MEAN_MOTION":15.0884147,"ECCENTRICITY":0.00012734,"INCLINATION":53.2172,"RA_OF_ASC_NODE":233.3809,"ARG_OF_PERICENTER":87.8287,"MEAN_ANOMALY":272.2851,"EPHEMERIS_TYPE":0,"CLASSIFICATION_TYPE":"U","NORAD_CAT_ID":53608,"ELEMENT_SET_NO":999,"REV_AT_EPOCH":19566,"BSTAR":8.3834508e-5,"MEAN_MOTION_DOT":1.047e-5,"MEAN_MOTION_DDOT":0},{"OBJECT_NAME":"CZ-6A DEB","OBJECT_ID":"2024-126C","EPOCH":"2026-03-09T22:45:09.534528","MEAN_MOTION":15.08339588,"ECCENTRICITY":0.00034995,"INCLINATION":97.8272,"RA_OF_ASC_NODE":88.0703,"ARG_OF_PERICENTER":249.9832,"MEAN_ANOMALY":110.1019,"EPHEMERIS_TYPE":0,"CLASSIFICATION_TYPE":"U","NORAD_CAT_ID":60213,"ELEMENT_SET_NO":999,"REV_AT_EPOCH":9177,"BSTAR":0.0010886629,"MEAN_MOTION_DOT":0.00016868,"MEAN_MOTION_DDOT":0}]
